OBJECT_NAME,OBJECT_ID,EPOCH,MEAN_MOTION,ECCENTRICITY,INCLINATION,RA_OF_ASC_NODE,ARG_OF_PERICENTER,MEAN_ANOMALY,EPHEMERIS_TYPE,CLASSIFICATION_TYPE,NORAD_CAT_ID,ELEMENT_SET_NO,REV_AT_EPOCH,BSTAR,MEAN_MOTION_DOT,MEAN_MOTION_DDOT
TJS-7,2021-077A,2026-06-27T12:02:02.060736,1.00271236,.0003554,0.3286,264.7911,114.2920,337.5813,0,U,49115,999,965,0,-.112E-5,0
CHINASAT 9B,2021-080A,2026-06-27T07:51:23.745888,1.00271042,.0002472,0.0143,300.5448,174.7507,19.4006,0,U,49125,999,1775,0,-.301E-5,0
SES-17,2021-095A,2026-06-27T04:25:38.699616,1.00271164,.00013484,0.0244,40.4143,74.2632,159.9340,0,U,49332,999,1795,0,-.261E-5,0
SYRACUSE 4A,2021-095B,2026-06-27T04:10:02.714592,1.00270000,.00015095,0.0286,23.6198,63.8852,295.8018,0,U,49333,999,1804,0,0,0
QZS-1R (MICHIBIKI-1R),2021-096A,2026-06-26T14:51:13.875840,1.00253032,.0755635,37.4804,79.4425,271.9684,279.4688,0,U,49336,999,1710,0,-.312E-5,0
ZHONGXING-1D,2021-114A,2026-06-27T13:44:07.761984,1.00272155,.0000389,0.0458,162.4845,358.1669,91.2489,0,U,49505,999,1692,0,-.324E-5,0
STPSAT-6,2021-118A,2026-06-26T15:26:37.918752,1.00270723,.00010721,0.3452,85.3394,271.2626,38.1316,0,U,49817,999,1666,0,-.34E-6,0
EXPRESS AMU-7,2021-123A,2026-06-27T04:38:08.829600,1.00271789,.0000254,0.0162,323.3125,70.9729,95.5624,0,U,50001,999,1664,0,-.231E-5,0
EXPRESS AMU-3,2021-123B,2026-06-25T22:52:04.605312,1.00270643,.0000317,0.0216,329.0934,357.0236,33.8810,0,U,50002,999,712,0,0,0
TIANLIAN 2-02,2021-124A,2026-06-27T12:24:38.765376,1.00272766,.0000858,0.8285,85.9821,190.7195,356.0533,0,U,50005,999,1672,0,-.3E-7,0
TURKSAT 5B,2021-126A,2026-06-27T04:09:02.810016,1.00268596,.0003257,0.0676,341.3089,18.7110,19.5169,0,U,50212,999,1639,0,.158E-5,0
INMARSAT 6-F1,2021-128A,2026-06-27T11:11:37.232160,1.00270204,.0000387,0.0159,321.7947,156.1706,49.2768,0,U,50319,999,1636,0,-.16E-5,0
TJS-9,2021-135A,2026-06-27T13:13:38.503776,1.00271574,.0003872,0.0286,212.5351,207.2844,191.4882,0,U,50574,999,1653,0,-.287E-5,0
USA 324,2022-006A,2026-06-06T02:06:38.886912,1.00289779,.000284,0.7690,83.2777,165.6787,110.1567,0,U,51280,999,1602,0,-.58E-6,0
GOES 18,2022-021A,2026-06-27T12:06:02.478240,1.00273501,.0000682,0.0112,256.2440,231.9078,191.9720,0,U,51850,999,669,0,.108E-5,0
ZHONGXING-6D,2022-038A,2026-06-26T21:19:46.549344,1.00274546,.0000289,0.0085,57.6274,137.5274,164.8404,0,U,52255,999,1552,0,-.342E-5,0
NILESAT 301,2022-061A,2026-06-27T07:20:24.240768,1.00272833,.0004872,0.0449,354.4478,65.9575,318.1128,0,U,52817,999,1483,0,-.46E-6,0
CMS-02 (GSAT-24),2022-067A,2026-06-27T11:11:22.253856,1.00271559,.0001598,0.0375,252.6525,128.7516,145.0272,0,U,52903,999,1471,0,-.153E-5,0
MEASAT 3D,2022-067B,2026-06-27T09:31:08.457024,1.00271945,.0000777,0.0423,312.4857,102.6487,94.6694,0,U,52904,999,1475,0,-.23E-5,0
SES-22,2022-071A,2026-06-27T11:50:48.137280,1.00270695,.0001335,0.0117,324.7849,119.7636,229.7474,0,U,52933,999,762,0,.116E-5,0
WFOV (USA 332),2022-073A,2026-06-26T18:15:06.681600,1.00270865,.00017585,3.7351,78.4130,261.7110,327.8097,0,U,52940,999,1446,0,-.354E-5,0
TIANLIAN 2-03,2022-078A,2026-06-27T12:33:21.557088,1.00271495,.0001105,0.6969,77.2273,339.4617,57.8364,0,U,53100,999,1465,0,.83E-6,0
SBIRS GEO-6 (USA 336),2022-092A,2026-06-27T11:08:54.602304,1.00271703,.0002222,3.2403,317.6603,131.1351,133.0112,0,U,53355,999,1433,0,-.277E-5,0
EUTELSAT KONNECT VHTS,2022-110A,2026-06-27T09:05:50.593056,1.00270575,.0002914,0.0634,99.4343,339.9150,335.3134,0,U,53765,999,693,0,.29E-6,0
ZHONGXING-1E,2022-112A,2026-06-27T11:10:59.790720,1.00272014,.0000182,0.0102,117.7299,212.3140,194.7002,0,U,53813,999,1395,0,-.138E-5,0
SES-20,2022-123A,2026-06-27T10:18:18.724896,1.00268378,.000211,0.0189,56.8083,40.7840,229.4162,0,U,53960,999,1363,0,-.89E-6,0
SES-21,2022-123B,2026-06-27T11:58:38.784000,1.00268092,.0000853,0.0393,21.2126,77.1379,225.9953,0,U,53961,999,731,0,0,0
GALAXY 33 (G-33),2022-128A,2026-06-27T11:52:25.480704,1.00271753,.0002075,0.0102,24.9906,67.1691,228.5487,0,U,54026,999,1384,0,.91E-6,0
GALAXY 34 (G-34),2022-128B,2026-06-27T08:25:38.730144,1.00267218,.0001913,0.0113,44.0196,61.1861,167.6565,0,U,54027,999,1401,0,.71E-6,0
