TJS-7                   
1 49115U 21077A   26178.50141274 -.00000112  00000+0  00000+0 0  9998
2 49115   0.3286 264.7911 0003554 114.2920 337.5813  1.00271236  9659
CHINASAT 9B             
1 49125U 21080A   26178.32735817 -.00000301  00000+0  00000+0 0  9995
2 49125   0.0143 300.5448 0002472 174.7507  19.4006  1.00271042 17758
SES-17                  
1 49332U 21095A   26178.18447569 -.00000261  00000+0  00000+0 0  9994
2 49332   0.0244  40.4143 0001348  74.2632 159.9340  1.00271164 17954
SYRACUSE 4A             
1 49333U 21095B   26178.17364253  .00000000  00000+0  00000+0 0  9992
2 49333   0.0286  23.6198 0001509  63.8852 295.8018  1.00270000 18042
QZS-1R (MICHIBIKI-1R)   
1 49336U 21096A   26177.61891060 -.00000312  00000+0  00000+0 0  9992
2 49336  37.4804  79.4425 0755635 271.9684 279.4688  1.00253032 17101
ZHONGXING-1D            
1 49505U 21114A   26178.57231206 -.00000324  00000+0  00000+0 0  9990
2 49505   0.0458 162.4845 0000389 358.1669  91.2489  1.00272155 16924
STPSAT-6                
1 49817U 21118A   26177.64349443 -.00000034  00000+0  00000+0 0  9998
2 49817   0.3452  85.3394 0001072 271.2626  38.1316  1.00270723 16666
EXPRESS AMU-7           
1 50001U 21123A   26178.19315775 -.00000231  00000+0  00000+0 0  9992
2 50001   0.0162 323.3125 0000254  70.9729  95.5624  1.00271789 16644
EXPRESS AMU-3           
1 50002U 21123B   26176.95283108  .00000000  00000+0  00000+0 0  9992
2 50002   0.0216 329.0934 0000317 357.0236  33.8810  1.00270643  7121
TIANLIAN 2-02           
1 50005U 21124A   26178.51711534 -.00000003  00000+0  00000+0 0  9993
2 50005   0.8285  85.9821 0000858 190.7195 356.0533  1.00272766 16723
TURKSAT 5B              
1 50212U 21126A   26178.17294919  .00000158  00000+0  00000+0 0  9990
2 50212   0.0676 341.3089 0003257  18.7110  19.5169  1.00268596 16391
INMARSAT 6-F1           
1 50319U 21128A   26178.46640315 -.00000160  00000+0  00000+0 0  9991
2 50319   0.0159 321.7947 0000387 156.1706  49.2768  1.00270204 16360
TJS-9                   
1 50574U 21135A   26178.55114009 -.00000287  00000+0  00000+0 0  9998
2 50574   0.0286 212.5351 0003872 207.2844 191.4882  1.00271574 16530
USA 324                 
1 51280U 22006A   26157.08795008 -.00000058  00000+0  00000+0 0  9996
2 51280   0.7690  83.2777 0002840 165.6787 110.1567  1.00289779 16021
GOES 18                 
1 51850U 22021A   26178.50419535  .00000108  00000+0  00000+0 0  9999
2 51850   0.0112 256.2440 0000682 231.9078 191.9720  1.00273501  6693
ZHONGXING-6D            
1 52255U 22038A   26177.88873321 -.00000342  00000+0  00000+0 0  9995
2 52255   0.0085  57.6274 0000289 137.5274 164.8404  1.00274546 15522
NILESAT 301             
1 52817U 22061A   26178.30583612 -.00000046  00000+0  00000+0 0  9995
2 52817   0.0449 354.4478 0004872  65.9575 318.1128  1.00272833 14831
CMS-02 (GSAT-24)        
1 52903U 22067A   26178.46622979 -.00000153  00000+0  00000+0 0  9993
2 52903   0.0375 252.6525 0001598 128.7516 145.0272  1.00271559 14710
MEASAT 3D               
1 52904U 22067B   26178.39662566 -.00000230  00000+0  00000+0 0  9998
2 52904   0.0423 312.4857 0000777 102.6487  94.6694  1.00271945 14754
SES-22                  
1 52933U 22071A   26178.49361270  .00000116  00000+0  00000+0 0  9996
2 52933   0.0117 324.7849 0001335 119.7636 229.7474  1.00270695  7625
WFOV (USA 332)          
1 52940U 22073A   26177.76049400 -.00000354  00000+0  00000+0 0  9998
2 52940   3.7351  78.4130 0001758 261.7110 327.8097  1.00270865 14463
TIANLIAN 2-03           
1 53100U 22078A   26178.52316617  .00000083  00000+0  00000+0 0  9992
2 53100   0.6969  77.2273 0001105 339.4617  57.8364  1.00271495 14657
SBIRS GEO-6 (USA 336)   
1 53355U 22092A   26178.46452086 -.00000277  00000+0  00000+0 0  9990
2 53355   3.2403 317.6603 0002222 131.1351 133.0112  1.00271703 14337
EUTELSAT KONNECT VHTS   
1 53765U 22110A   26178.37905779  .00000029  00000+0  00000+0 0  9992
2 53765   0.0634  99.4343 0002914 339.9150 335.3134  1.00270575  6936
ZHONGXING-1E            
1 53813U 22112A   26178.46596980 -.00000138  00000+0  00000+0 0  9990
2 53813   0.0102 117.7299 0000182 212.3140 194.7002  1.00272014 13953
SES-20                  
1 53960U 22123A   26178.42938339 -.00000089  00000+0  00000+0 0  9994
2 53960   0.0189  56.8083 0002110  40.7840 229.4162  1.00268378 13634
SES-21                  
1 53961U 22123B   26178.49906000  .00000000  00000+0  00000+0 0  9994
2 53961   0.0393  21.2126 0000853  77.1379 225.9953  1.00268092  7319
GALAXY 33 (G-33)        
1 54026U 22128A   26178.49473936  .00000091  00000+0  00000+0 0  9999
2 54026   0.0102  24.9906 0002075  67.1691 228.5487  1.00271753 13844
GALAXY 34 (G-34)        
1 54027U 22128B   26178.35114271  .00000071  00000+0  00000+0 0  9997
2 54027   0.0113  44.0196 0001913  61.1861 167.6565  1.00267218 14015
